[{"OBJECT_NAME":"STARLINK-5062","OBJECT_ID":"2023-021K","EPOCH":"2026-03-09T17:21:18.039744","MEAN_MOTION":14.98327896,"ECCENTRICITY":0.00032112,"INCLINATION":70.0006,"RA_OF_ASC_NODE":184.4829,"ARG_OF_PERICENTER":272.1961,"MEAN_ANOMALY":87.883,"EPHEMERIS_TYPE":0,"CLASSIFICATION_TYPE":"U","NORAD_CAT_ID":55637,"ELEMENT_SET_NO":999,"REV_AT_EPOCH":16879,"BSTAR":-2.3702506e-5,"MEAN_MOTION_DOT":-3.76e-6,"MEAN_MOTION_DDOT":0},{"OBJECT_NAME":"COSMOS 2228","OBJECT_ID":"1992-094A","EPOCH":"2026-03-09T22:06:22.986432","MEAN_MOTION":14.97191104,"ECCENTRICITY":0.00167811,"INCLINATION":82.5157,"RA_OF_ASC_NODE":237.0886,"ARG_OF_PERICENTER":303.9293,"MEAN_ANOMALY":56.0333,"EPHEMERIS_TYPE":0,"CLASSIFICATION_TYPE":"U","NORAD_CAT_ID":22286,"ELEMENT_SET_NO":999,"REV_AT_EPOCH":77609,"BSTAR":0.0002463535,"MEAN_MOTION_DOT":2.881e-5,"MEAN_MOTION_DDOT":0}]
